start=new Date('2023-03-06T00:00:00.000Z').valueOf();
sats=[{"NORAD_CAT_ID":"53085","CENTER_NAME":"EARTH","PERIAPSIS":"562.785","INCLINATION":"97.6525","GP_ID":"227583620","OBJECT_NAME":"STARLINK-4324","RA_OF_ASC_NODE":"247.3085","LAUNCH_DATE":"2022-07-11","MEAN_MOTION":"15.01262348","COUNTRY_CODE":"US","MEAN_MOTION_DOT":"0.00000604","MEAN_ELEMENT_THEORY":"SGP4","SEMIMAJOR_AXIS":"6941.140","DECAY_DATE":null,"TLE_LINE1":"1 53085U 22077AU  23064.75093200  .00000604  00000-0  51567-4 0  9998","ECCENTRICITY":"0.00003170","EPOCH":"2023-03-05T18:01:20.524800","REF_FRAME":"TEME","APOAPSIS":"563.225","FILE":"3852256","OBJECT_ID":"2022-077AU","BSTAR":"0.00005156700000","ARG_OF_PERICENTER":"188.2469","TLE_LINE2":"2 53085  97.6525 247.3085 0000317 188.2469 171.8750 15.01262348 35891","OBJECT_TYPE":"PAYLOAD","TIME_SYSTEM":"UTC","ELEMENT_SET_NO":"999","REV_AT_EPOCH":"3589","EPHEMERIS_TYPE":"0","PERIOD":"95.919","MEAN_ANOMALY":"171.8750","RCS_SIZE":"LARGE","MEAN_MOTION_DDOT":"0.0000000000000","SITE":"AFWTR","CLASSIFICATION_TYPE":"U"},{"CLASSIFICATION_TYPE":"U","SITE":"AFWTR","MEAN_MOTION_DDOT":"0.0000000000000","RCS_SIZE":"LARGE","PERIOD":"95.919","EPHEMERIS_TYPE":"0","MEAN_ANOMALY":"258.7170","ELEMENT_SET_NO":"999","TLE_LINE2":"2 53086  97.6526 247.3089 0001169 101.4186 258.7170 15.01265088 35891","OBJECT_TYPE":"PAYLOAD","ARG_OF_PERICENTER":"101.4186","TIME_SYSTEM":"UTC","REV_AT_EPOCH":"3589","BSTAR":"-0.00000637730000","APOAPSIS":"563.808","EPOCH":"2023-03-05T18:04:00.566112","REF_FRAME":"TEME","OBJECT_ID":"2022-077AV","FILE":"3852256","ECCENTRICITY":"0.00011690","TLE_LINE1":"1 53086U 22077AV  23064.75278433 -.00000141  00000-0 -63773-5 0  9993","MEAN_ELEMENT_THEORY":"SGP4","SEMIMAJOR_AXIS":"6941.131","DECAY_DATE":null,"MEAN_MOTION_DOT":"-0.00000141","RA_OF_ASC_NODE":"247.3089","COUNTRY_CODE":"US","MEAN_MOTION":"15.01265088","LAUNCH_DATE":"2022-07-11","OBJECT_NAME":"STARLINK-4318","PERIAPSIS":"562.185","GP_ID":"227583380","INCLINATION":"97.6526","NORAD_CAT_ID":"53086","CENTER_NAME":"EARTH"},{"CENTER_NAME":"EARTH","NORAD_CAT_ID":"53087","INCLINATION":"97.6529","GP_ID":"227582625","PERIAPSIS":"562.665","OBJECT_NAME":"STARLINK-4329","LAUNCH_DATE":"2022-07-11","COUNTRY_CODE":"US","MEAN_MOTION":"15.01267572","RA_OF_ASC_NODE":"247.3015","MEAN_MOTION_DOT":"0.00006035","DECAY_DATE":null,"MEAN_ELEMENT_THEORY":"SGP4","SEMIMAJOR_AXIS":"6941.124","ECCENTRICITY":"0.00004660","TLE_LINE1":"1 53087U 22077AW  23064.74747521  .00006035  00000-0  47398-3 0  9991","FILE":"3852256","OBJECT_ID":"2022-077AW","EPOCH":"2023-03-05T17:56:21.858144","REF_FRAME":"TEME","APOAPSIS":"563.312","BSTAR":"0.00047398000000","REV_AT_EPOCH":"3589","TIME_SYSTEM":"UTC","TLE_LINE2":"2 53087  97.6529 247.3015 0000466 132.7839 227.3424 15.01267572 35899","OBJECT_TYPE":"PAYLOAD","ARG_OF_PERICENTER":"132.7839","ELEMENT_SET_NO":"999","MEAN_ANOMALY":"227.3424","PERIOD":"95.919","EPHEMERIS_TYPE":"0","RCS_SIZE":"LARGE","MEAN_MOTION_DDOT":"0.0000000000000","SITE":"AFWTR","CLASSIFICATION_TYPE":"U"},{"BSTAR":"0.00006660400000","ELEMENT_SET_NO":"999","TLE_LINE2":"2 53088  97.6528 247.3054 0000531 188.4613 171.6603 15.01265693 35895","TIME_SYSTEM":"UTC","OBJECT_TYPE":"PAYLOAD","ARG_OF_PERICENTER":"188.4613","REV_AT_EPOCH":"3589","RCS_SIZE":"LARGE","PERIOD":"95.919","EPHEMERIS_TYPE":"0","MEAN_ANOMALY":"171.6603","CLASSIFICATION_TYPE":"U","SITE":"AFWTR","MEAN_MOTION_DDOT":"0.0000000000000","PERIAPSIS":"562.626","GP_ID":"227582875","INCLINATION":"97.6528","NORAD_CAT_ID":"53088","CENTER_NAME":"EARTH","RA_OF_ASC_NODE":"247.3054","COUNTRY_CODE":"US","MEAN_MOTION":"15.01265693","LAUNCH_DATE":"2022-07-11","OBJECT_NAME":"STARLINK-4333","SEMIMAJOR_AXIS":"6941.129","MEAN_ELEMENT_THEORY":"SGP4","DECAY_DATE":null,"MEAN_MOTION_DOT":"0.00000797","APOAPSIS":"563.363","EPOCH":"2023-03-05T17:58:40.536192","REF_FRAME":"TEME","OBJECT_ID":"2022-077AX","FILE":"3852256","ECCENTRICITY":"0.00005310","TLE_LINE1":"1 53088U 22077AX  23064.74908028  .00000797  00000-0  66604-4 0  9994"},{"NORAD_CAT_ID":"53132","CENTER_NAME":"EARTH","PERIAPSIS":"538.782","INCLINATION":"53.2140","GP_ID":"227582150","OBJECT_NAME":"STARLINK-4063","RA_OF_ASC_NODE":"71.9366","LAUNCH_DATE":"2022-07-17","COUNTRY_CODE":"US","MEAN_MOTION":"15.08835663","MEAN_MOTION_DOT":"0.00020035","MEAN_ELEMENT_THEORY":"SGP4","SEMIMAJOR_AXIS":"6917.894","DECAY_DATE":null,"TLE_LINE1":"1 53132U 22083A   23064.75092364  .00020035  00000-0  12735-2 0  9990","ECCENTRICITY":"0.00014120","EPOCH":"2023-03-05T18:01:19.802496","REF_FRAME":"TEME","APOAPSIS":"540.735","FILE":"3852256","OBJECT_ID":"2022-083A","BSTAR":"0.00127350000000","TIME_SYSTEM":"UTC","TLE_LINE2":"2 53132  53.2140  71.9366 0001412 103.9062 256.2087 15.08835663 35162","OBJECT_TYPE":"PAYLOAD","ARG_OF_PERICENTER":"103.9062","ELEMENT_SET_NO":"999","REV_AT_EPOCH":"3516","PERIOD":"95.438","EPHEMERIS_TYPE":"0","MEAN_ANOMALY":"256.2087","RCS_SIZE":"LARGE","MEAN_MOTION_DDOT":"0.0000000000000","SITE":"AFETR","CLASSIFICATION_TYPE":"U"},{"RCS_SIZE":"LARGE","MEAN_ANOMALY":"264.5116","EPHEMERIS_TYPE":"0","PERIOD":"95.438","SITE":"AFETR","CLASSIFICATION_TYPE":"U","MEAN_MOTION_DDOT":"0.0000000000000","BSTAR":"0.00140310000000","REV_AT_EPOCH":"3510","TIME_SYSTEM":"UTC","TLE_LINE2":"2 53133  53.2163  73.3379 0001398  95.6036 264.5116 15.08839141 35103","OBJECT_TYPE":"PAYLOAD","ARG_OF_PERICENTER":"95.6036","ELEMENT_SET_NO":"999","DECAY_DATE":null,"MEAN_ELEMENT_THEORY":"SGP4","SEMIMAJOR_AXIS":"6917.883","MEAN_MOTION_DOT":"0.00022112","FILE":"3851939","OBJECT_ID":"2022-083B","REF_FRAME":"TEME","EPOCH":"2023-03-05T10:30:53.494560","APOAPSIS":"540.715","TLE_LINE1":"1 53133U 22083B   23064.43811915  .00022112  00000-0  14031-2 0  9996","ECCENTRICITY":"0.00013980","INCLINATION":"53.2163","GP_ID":"227548950","PERIAPSIS":"538.781","CENTER_NAME":"EARTH","NORAD_CAT_ID":"53133","LAUNCH_DATE":"2022-07-17","MEAN_MOTION":"15.08839141","COUNTRY_CODE":"US","RA_OF_ASC_NODE":"73.3379","OBJECT_NAME":"STARLINK-4154"},{"RCS_SIZE":"LARGE","MEAN_ANOMALY":"280.7567","EPHEMERIS_TYPE":"0","PERIOD":"95.438","CLASSIFICATION_TYPE":"U","SITE":"AFETR","MEAN_MOTION_DDOT":"0.0000000000000","BSTAR":"0.00119890000000","REV_AT_EPOCH":"3509","ELEMENT_SET_NO":"999","TIME_SYSTEM":"UTC","TLE_LINE2":"2 53134  53.2169  73.9860 0001219  79.3562 280.7567 15.08834415 35093","OBJECT_TYPE":"PAYLOAD","ARG_OF_PERICENTER":"79.3562","DECAY_DATE":null,"MEAN_ELEMENT_THEORY":"SGP4","SEMIMAJOR_AXIS":"6917.897","MEAN_MOTION_DOT":"0.00018841","OBJECT_ID":"2022-083C","FILE":"3851939","APOAPSIS":"540.606","EPOCH":"2023-03-05T07:04:13.277568","REF_FRAME":"TEME","TLE_LINE1":"1 53134U 22083C   23064.29459812  .00018841  00000-0  11989-2 0  9998","ECCENTRICITY":"0.00012190","GP_ID":"227549703","INCLINATION":"53.2169","PERIAPSIS":"538.919","CENTER_NAME":"EARTH","NORAD_CAT_ID":"53134","COUNTRY_CODE":"US","MEAN_MOTION":"15.08834415","LAUNCH_DATE":"2022-07-17","RA_OF_ASC_NODE":"73.9860","OBJECT_NAME":"STARLINK-4150"},{"MEAN_ANOMALY":"249.9632","PERIOD":"95.437","EPHEMERIS_TYPE":"0","RCS_SIZE":"LARGE","MEAN_MOTION_DDOT":"0.0000000000000","SITE":"AFETR","CLASSIFICATION_TYPE":"U","BSTAR":"0.00080594000000","REV_AT_EPOCH":"3610","OBJECT_TYPE":"PAYLOAD","TLE_LINE2":"2 53135  53.2142  73.3560 0001749 110.1548 249.9632 15.08848210 36103","TIME_SYSTEM":"UTC","ARG_OF_PERICENTER":"110.1548","ELEMENT_SET_NO":"999","MEAN_MOTION_DOT":"0.00012565","DECAY_DATE":null,"MEAN_ELEMENT_THEORY":"SGP4","SEMIMAJOR_AXIS":"6917.855","ECCENTRICITY":"0.00017490","TLE_LINE1":"1 53135U 22083D   23064.43443758  .00012565  00000-0  80594-3 0  9993","FILE":"3851939","OBJECT_ID":"2022-083D","EPOCH":"2023-03-05T10:25:35.406912","REF_FRAME":"TEME","APOAPSIS":"540.930","CENTER_NAME":"EARTH","NORAD_CAT_ID":"53135","INCLINATION":"53.2142","GP_ID":"227547957","PERIAPSIS":"538.510","OBJECT_NAME":"STARLINK-4023","LAUNCH_DATE":"2022-07-17","MEAN_MOTION":"15.08848210","COUNTRY_CODE":"US","RA_OF_ASC_NODE":"73.3560"},{"BSTAR":"0.00171440000000","REV_AT_EPOCH":"3608","TLE_LINE2":"2 53136  53.2145  73.9684 0001520  40.1595 319.9509 15.08839182 36087","TIME_SYSTEM":"UTC","OBJECT_TYPE":"PAYLOAD","ARG_OF_PERICENTER":"40.1595","ELEMENT_SET_NO":"999","RCS_SIZE":"LARGE","MEAN_ANOMALY":"319.9509","PERIOD":"95.438","EPHEMERIS_TYPE":"0","SITE":"AFETR","CLASSIFICATION_TYPE":"U","MEAN_MOTION_DDOT":"0.0000000000000","INCLINATION":"53.2145","GP_ID":"227548207","PERIAPSIS":"538.696","CENTER_NAME":"EARTH","NORAD_CAT_ID":"53136","LAUNCH_DATE":"2022-07-17","MEAN_MOTION":"15.08839182","COUNTRY_CODE":"US","RA_OF_ASC_NODE":"73.9684","OBJECT_NAME":"STARLINK-4152","DECAY_DATE":null,"MEAN_ELEMENT_THEORY":"SGP4","SEMIMAJOR_AXIS":"6917.883","MEAN_MOTION_DOT":"0.00027101","FILE":"3851939","OBJECT_ID":"2022-083E","REF_FRAME":"TEME","EPOCH":"2023-03-05T07:09:31.525056","APOAPSIS":"540.799","TLE_LINE1":"1 53136U 22083E   23064.29828154  .00027101  00000-0  17144-2 0  9997","ECCENTRICITY":"0.00015200"},{"MEAN_MOTION_DOT":"0.00009168","SEMIMAJOR_AXIS":"6917.882","MEAN_ELEMENT_THEORY":"SGP4","DECAY_DATE":null,"ECCENTRICITY":"0.00017700","TLE_LINE1":"1 53137U 22083F   23064.75460094  .00009168  00000-0  59335-3 0  9996","APOAPSIS":"540.971","EPOCH":"2023-03-05T18:06:37.521216","REF_FRAME":"TEME","OBJECT_ID":"2022-083F","FILE":"3852256","NORAD_CAT_ID":"53137","CENTER_NAME":"EARTH","PERIAPSIS":"538.522","GP_ID":"227582878","INCLINATION":"53.2152","OBJECT_NAME":"STARLINK-4145","RA_OF_ASC_NODE":"71.9206","MEAN_MOTION":"15.08839565","COUNTRY_CODE":"US","LAUNCH_DATE":"2022-07-17","PERIOD":"95.438","EPHEMERIS_TYPE":"0","MEAN_ANOMALY":"279.8726","RCS_SIZE":"LARGE","MEAN_MOTION_DDOT":"0.0000000000000","CLASSIFICATION_TYPE":"U","SITE":"AFETR","BSTAR":"0.00059335000000","ELEMENT_SET_NO":"999","OBJECT_TYPE":"PAYLOAD","TLE_LINE2":"2 53137  53.2152  71.9206 0001770  80.2466 279.8726 15.08839565 35161","ARG_OF_PERICENTER":"80.2466","TIME_SYSTEM":"UTC","REV_AT_EPOCH":"3516"}];
